[{"OBJECT_NAME":"STARLINK-34122","OBJECT_ID":"2025-110X","EPOCH":"2026-03-09T03:38:31.041024","MEAN_MOTION":15.30212775,"ECCENTRICITY":0.00015482,"INCLINATION":53.1612,"RA_OF_ASC_NODE":29.005,"ARG_OF_PERICENTER":82.4632,"MEAN_ANOMALY":277.6544,"EPHEMERIS_TYPE":0,"CLASSIFICATION_TYPE":"U","NORAD_CAT_ID":64117,"ELEMENT_SET_NO":999,"REV_AT_EPOCH":4580,"BSTAR":0.00097241889,"MEAN_MOTION_DOT":0.00028563,"MEAN_MOTION_DDOT":0},{"OBJECT_NAME":"OBJECT L","OBJECT_ID":"2024-024L","EPOCH":"2026-03-09T22:36:05.522976","MEAN_MOTION":15.29373491,"ECCENTRICITY":0.00073185,"INCLINATION":97.3169,"RA_OF_ASC_NODE":137.7038,"ARG_OF_PERICENTER":167.6369,"MEAN_ANOMALY":192.5052,"EPHEMERIS_TYPE":0,"CLASSIFICATION_TYPE":"U","NORAD_CAT_ID":58927,"ELEMENT_SET_NO":999,"REV_AT_EPOCH":9318,"BSTAR":0.00043092344,"MEAN_MOTION_DOT":0.00012217,"MEAN_MOTION_DDOT":0}]
